{"spkid": "20154590", "covariance": {"labels": ["e", "q", "tp", "node", "peri", "i", "A2"], "elements": [{"title": "eccentricity", "value": ".4023446853254541", "units": null, "name": "e", "sigma": 6.23931769232992e-08, "label": "e"}, {"title": "perihelion distance", "value": ".6606188385294348", "units": "au", "sigma": 6.88386628066709e-08, "name": "q", "label": "q"}, {"sigma": 1.00941135031104e-05, "name": "tp", "title": "time of perihelion passage", "value": "2457987.013320735025", "units": "TDB", "label": "tp"}, {"name": "om", "sigma": 0.000240148078983934, "units": "deg", "title": "longitude of the ascending node", "value": "152.6524052373182", "label": "node"}, {"title": "argument of perihelion", "value": "228.9282604129224", "units": "deg", "name": "w", "sigma": 0.000238967439205928, "label": "peri"}, {"name": "i", "sigma": 3.26749942302003e-06, "title": "inclination", "value": "1.413169075686768", "units": "deg", "label": "i"}], "data": [["3.892908526582114E-15", "-4.293598769436703E-15", "-2.353691115265124E-13", "1.9858588681702E-13", "-3.85760271949364E-14", "6.082948806456368E-17", "-3.044300372371213E-23"], ["-4.293598769436703E-15", "4.738761497010542E-15", "2.687146918401512E-13", "-1.755153988078812E-13", "5.521793944468195E-15", "4.303218971972841E-16", "4.938831812609398E-23"], ["-2.353691115265124E-13", "2.687146918401512E-13", "1.018911274136761E-10", "1.683483627818518E-10", "-1.311290803034042E-10", "2.580867014511113E-12", "4.510179343381461E-20"], ["1.9858588681702E-13", "-1.755153988078812E-13", "1.683483627818518E-10", "5.76710998396736E-8", "-5.736191947587382E-8", "-4.559536701870761E-10", "5.523644279225187E-19"], ["-3.85760271949364E-14", "5.521793944468195E-15", "-1.311290803034042E-10", "-5.736191947587382E-8", "5.710543700063908E-8", "4.591779346231747E-10", "-5.071927031615952E-19"], ["6.082948806456368E-17", "4.303218971972841E-16", "2.580867014511113E-12", "-4.559536701870761E-10", "4.591779346231747E-10", "1.067655247943624E-11", "5.771918209663079E-21"], ["-3.044300372371213E-23", "4.938831812609398E-23", "4.510179343381461E-20", "5.523644279225187E-19", "-5.071927031615952E-19", "5.771918209663079E-21", "1.052635372948296E-28"]], "epoch": "2457903.5"}, "elements": [{"value": ".4021483663128078", "title": "eccentricity", "units": null, "name": "e", "sigma": "6.2631E-8", "label": "e"}, {"label": "a", "units": "au", "title": "semi-major axis", "value": "1.105145009435072", "sigma": "6.8952E-9", "name": "a"}, {"label": "q", "value": ".660712749352005", "title": "perihelion distance", "units": "au", "name": "q", "sigma": "6.8887E-8"}, {"label": "i", "sigma": "3.2609E-6", "name": "i", "units": "deg", "value": "1.415997763861056", "title": "inclination; angle with respect to x-y ecliptic plane"}, {"units": "deg", "value": "152.6616170869523", "title": "longitude of the ascending node", "sigma": ".00023995", "name": "om", "label": "node"}, {"sigma": ".00023875", "name": "w", "title": "argument of perihelion", "value": "228.8639332929382", "units": "deg", "label": "peri"}, {"label": "M", "title": "mean anomaly", "value": "206.0084089625815", "units": "deg", "name": "ma", "sigma": "2.2713E-5"}, {"sigma": "2.8373E-5", "name": "tp", "title": "time of perihelion passage", "value": "2461382.018892244486", "units": "TDB", "label": "tp"}, {"sigma": "3.9715E-6", "name": "per", "value": "424.3530492008253", "title": "sidereal orbital period", "units": "d", "label": "period"}, {"label": "n", "value": ".8483502137618194", "title": "mean motion", "units": "deg/d", "name": "n", "sigma": "7.9396E-9"}, {"label": "Q", "sigma": "9.6682E-9", "name": "ad", "value": "1.549577269518138", "title": "aphelion distance", "units": "au"}], "epoch": "2461200.5"}